[{"OBJECT_NAME":"HULIANWANG DIGUI-148","OBJECT_ID":"2026-013C","EPOCH":"2026-03-09T18:05:53.473632","MEAN_MOTION":13.45277942,"ECCENTRICITY":0.00018665,"INCLINATION":50.0248,"RA_OF_ASC_NODE":352.9867,"ARG_OF_PERICENTER":347.0567,"MEAN_ANOMALY":13.0264,"EPHEMERIS_TYPE":0,"CLASSIFICATION_TYPE":"U","NORAD_CAT_ID":67524,"ELEMENT_SET_NO":999,"REV_AT_EPOCH":681,"BSTAR":0.00015432174,"MEAN_MOTION_DOT":-3.8e-7,"MEAN_MOTION_DDOT":0},{"OBJECT_NAME":"NIMBUS 4","OBJECT_ID":"1970-025A","EPOCH":"2026-03-09T18:16:50.188800","MEAN_MOTION":13.44749784,"ECCENTRICITY":0.00068562,"INCLINATION":99.9607,"RA_OF_ASC_NODE":350.8183,"ARG_OF_PERICENTER":238.0406,"MEAN_ANOMALY":177.2161,"EPHEMERIS_TYPE":0,"CLASSIFICATION_TYPE":"U","NORAD_CAT_ID":4362,"ELEMENT_SET_NO":999,"REV_AT_EPOCH":74348,"BSTAR":7.8934684e-5,"MEAN_MOTION_DOT":1.0e-8,"MEAN_MOTION_DDOT":0}]
